OBJECT_NAME,OBJECT_ID,EPOCH,MEAN_MOTION,ECCENTRICITY,INCLINATION,RA_OF_ASC_NODE,ARG_OF_PERICENTER,MEAN_ANOMALY,EPHEMERIS_TYPE,CLASSIFICATION_TYPE,NORAD_CAT_ID,ELEMENT_SET_NO,REV_AT_EPOCH,BSTAR,MEAN_MOTION_DOT,MEAN_MOTION_DDOT
ZHONGXING-2C,2015-063A,2026-06-08T19:00:31.048992,1.00268146,.0007708,0.2508,90.2727,95.8860,99.5530,0,U,41021,999,3889,0,-.307E-5,0
GSAT-15,2015-065A,2026-06-08T18:57:38.825280,1.00270840,.0003953,0.0502,111.6904,327.3634,196.0460,0,U,41028,999,3871,0,-.241E-5,0
BADR-7 (ARABSAT-6B),2015-065B,2026-06-08T17:46:34.203360,1.00270635,.0003349,0.0371,235.7052,322.6322,351.4208,0,U,41029,999,3868,0,.161E-5,0
LAOSAT 1,2015-067A,2026-06-08T19:07:32.694816,1.00274076,.0002498,0.0383,188.4120,206.9477,277.2094,0,U,41034,999,3877,0,-.326E-5,0
TELSTAR 12V,2015-068A,2026-06-08T18:26:38.920128,1.00271182,.000234,0.0206,61.0996,14.4123,83.3146,0,U,41036,999,3854,0,-.103E-5,0
ELEKTRO-L 2,2015-074A,2026-06-08T01:19:49.413792,1.00272046,.00011341,6.6705,70.6343,284.8984,266.3917,0,U,41105,999,3841,0,-.103E-5,0
COSMOS 2513,2015-075A,2026-06-07T08:40:25.028256,1.00272440,.00036874,0.0781,99.8531,329.6914,36.5844,0,U,41121,999,3845,0,-.124E-5,0
EXPRESS-AMU1,2015-082A,2026-06-08T18:41:15.271008,1.00269418,.0002743,0.0200,344.5566,96.3719,132.6332,0,U,41191,999,3818,0,0,0
GAOFEN-4,2015-083A,2026-06-08T14:20:42.251136,1.00273550,.00041656,0.3341,83.8441,111.8448,22.1741,0,U,41194,999,3844,0,-.319E-5,0
BELINTERSAT-1,2016-001A,2026-06-08T20:34:54.875712,1.00273605,.000211,0.0429,121.3685,275.1737,220.9410,0,U,41238,999,3815,0,.123E-5,0
IRNSS-1E,2016-003A,2026-06-08T15:37:22.092096,1.00269056,.0017915,33.2165,59.8739,179.3895,3.8192,0,U,41241,999,3799,0,-.296E-5,0
EUTELSAT 9B,2016-005A,2026-06-08T18:33:30.762144,1.00272515,.000185,0.0591,71.9722,334.0460,138.5062,0,U,41310,999,3803,0,.78E-6,0
SES-9,2016-013A,2026-06-08T20:44:59.998848,1.00269876,.0002257,0.0102,326.5611,117.0346,233.2071,0,U,41380,999,3735,0,-.329E-5,0
EUTELSAT 65 WEST A,2016-014A,2026-06-08T13:04:19.517376,1.00272664,.00023062,0.0498,7.2125,60.9130,319.7035,0,U,41382,999,3743,0,-.26E-5,0
IRNSS-1F,2016-015A,2026-06-08T13:32:11.798880,1.00278370,.0016605,5.3275,96.9761,186.7778,208.8268,0,U,41384,999,3758,0,.175E-5,0
BEIDOU-2 IGSO-6,2016-021A,2026-06-07T17:32:33.318816,1.00261446,.00571523,60.2120,38.1351,231.4838,343.0783,0,U,41434,999,3738,0,-.15E-5,0
IRNSS-1G,2016-027A,2026-06-08T19:07:55.158816,1.00270355,.0007493,5.1775,97.6673,352.8205,223.2545,0,U,41469,999,3709,0,-.317E-5,0
JCSAT-2B,2016-028A,2026-06-08T18:28:55.745760,1.00269991,.0000952,0.0181,350.8026,95.5813,242.0047,0,U,41471,999,3704,0,-.149E-5,0
THAICOM 8,2016-031A,2026-06-08T18:53:21.609888,1.00270519,.0003726,0.0664,46.0485,11.3009,201.7009,0,U,41552,999,3663,0,-.105E-5,0
INTELSAT 31 (IS-31),2016-035A,2026-06-08T14:38:21.870240,1.00272044,.0000809,0.0211,259.1393,346.2683,136.1436,0,U,41581,999,3659,0,-.135E-5,0
BEIDOU-2 G7,2016-037A,2026-06-08T21:53:32.696736,1.00268906,.000725,1.6985,69.2507,2.6055,264.3649,0,U,41586,999,680,0,-.337E-5,0
ABS-2A (MONGOLSAT-1),2016-038A,2026-06-08T18:52:14.217024,1.00270031,.0001482,0.0183,321.5958,63.9214,229.4732,0,U,41588,999,3662,0,0,0
EUTELSAT 117 WEST B,2016-038B,2026-06-08T15:06:37.037376,1.00272949,.000022,0.0210,163.4448,214.4322,348.7805,0,U,41589,999,3657,0,.4E-7,0
BRISAT,2016-039A,2026-06-08T17:31:11.229312,1.00270740,.0002059,0.0183,309.0306,127.7165,233.6714,0,U,41591,999,3652,0,-.18E-5,0
ECHOSTAR 18,2016-039B,2026-06-08T18:13:25.190112,1.00270615,.0001518,0.0179,331.8113,107.3817,29.9509,0,U,41592,999,3654,0,-.266E-5,0
MUOS-5,2016-041A,2026-06-08T16:18:06.340320,1.00271428,.0196921,2.2227,301.4753,260.8682,194.0154,0,U,41622,999,3700,0,-.98E-6,0
TIANTONG-1 1,2016-048A,2026-06-08T18:59:53.610144,1.00270917,.0006047,3.8324,43.3387,42.7405,197.4987,0,U,41725,999,3618,0,-.302E-5,0
JCSAT-16,2016-050A,2026-06-08T19:12:02.265408,1.00270303,.0000934,0.0178,352.0022,93.0779,244.0552,0,U,41729,999,3598,0,-.235E-5,0
USA 270,2016-052A,2026-06-08T02:16:56.129376,1.00284145,.0008515,4.1755,77.3049,337.9683,59.8197,0,U,41744,999,2804,0,.95E-6,0
USA 271,2016-052B,2026-06-07T19:08:42.969984,1.00262239,.0010783,4.1460,77.3775,157.2143,71.4983,0,U,41745,999,2782,0,-.344E-5,0
INTELSAT 36 (IS-36),2016-053A,2026-06-08T20:41:40.307712,1.00270711,.0001928,0.0100,350.3417,345.2697,300.5515,0,U,41747,999,3587,0,-.8E-7,0
INSAT-3DR,2016-054A,2026-06-08T18:51:59.242176,1.00270569,.0010429,0.0835,87.5770,186.7504,339.8309,0,U,41752,999,3573,0,-.6E-6,0
