ZHONGXING-2C            
1 41021U 15063A   26159.79202603 -.00000307  00000+0  00000+0 0  9994
2 41021   0.2508  90.2727 0007708  95.8860  99.5530  1.00268146 38897
GSAT-15                 
1 41028U 15065A   26159.79003270 -.00000241  00000+0  00000+0 0  9999
2 41028   0.0502 111.6904 0003953 327.3634 196.0460  1.00270840 38711
BADR-7 (ARABSAT-6B)     
1 41029U 15065B   26159.74067365  .00000161  00000+0  00000+0 0  9990
2 41029   0.0371 235.7052 0003349 322.6322 351.4208  1.00270635 38684
LAOSAT 1                
1 41034U 15067A   26159.79690619 -.00000326  00000+0  00000+0 0  9991
2 41034   0.0383 188.4120 0002498 206.9477 277.2094  1.00274076 38773
TELSTAR 12V             
1 41036U 15068A   26159.76850602 -.00000103  00000+0  00000+0 0  9994
2 41036   0.0206  61.0996 0002340  14.4123  83.3146  1.00271182 38546
ELEKTRO-L 2             
1 41105U 15074A   26159.05543303 -.00000103  00000+0  00000+0 0  9997
2 41105   6.6705  70.6343 0001134 284.8984 266.3917  1.00272046 38414
COSMOS 2513             
1 41121U 15075A   26158.36140079 -.00000124  00000+0  00000+0 0  9995
2 41121   0.0781  99.8531 0003687 329.6914  36.5844  1.00272440 38450
EXPRESS-AMU1            
1 41191U 15082A   26159.77864897  .00000000  00000+0  00000+0 0  9999
2 41191   0.0200 344.5566 0002743  96.3719 132.6332  1.00269418 38185
GAOFEN-4                
1 41194U 15083A   26159.59771124 -.00000319  00000+0  00000+0 0  9997
2 41194   0.3341  83.8441 0004165 111.8448  22.1741  1.00273550 38442
BELINTERSAT-1           
1 41238U 16001A   26159.85757958  .00000123  00000+0  00000+0 0  9997
2 41238   0.0429 121.3685 0002110 275.1737 220.9410  1.00273605 38156
IRNSS-1E                
1 41241U 16003A   26159.65095014 -.00000296  00000+0  00000+0 0  9991
2 41241  33.2165  59.8739 0017915 179.3895   3.8192  1.00269056 37990
EUTELSAT 9B             
1 41310U 16005A   26159.77327271  .00000078  00000+0  00000+0 0  9993
2 41310   0.0591  71.9722 0001850 334.0460 138.5062  1.00272515 38030
SES-9                   
1 41380U 16013A   26159.86458332 -.00000329  00000+0  00000+0 0  9992
2 41380   0.0102 326.5611 0002257 117.0346 233.2071  1.00269876 37358
EUTELSAT 65 WEST A      
1 41382U 16014A   26159.54467034 -.00000260  00000+0  00000+0 0  9993
2 41382   0.0498   7.2125 0002306  60.9130 319.7035  1.00272664 37431
IRNSS-1F                
1 41384U 16015A   26159.56402545  .00000175  00000+0  00000+0 0  9998
2 41384   5.3275  96.9761 0016605 186.7778 208.8268  1.00278370 37589
BEIDOU-2 IGSO-6         
1 41434U 16021A   26158.73094119 -.00000150  00000+0  00000+0 0  9997
2 41434  60.2120  38.1351 0057152 231.4838 343.0783  1.00261446 37382
IRNSS-1G                
1 41469U 16027A   26159.79716619 -.00000317  00000+0  00000+0 0  9999
2 41469   5.1775  97.6673 0007493 352.8205 223.2545  1.00270355 37092
JCSAT-2B                
1 41471U 16028A   26159.77008965 -.00000149  00000+0  00000+0 0  9992
2 41471   0.0181 350.8026 0000952  95.5813 242.0047  1.00269991 37040
THAICOM 8               
1 41552U 16031A   26159.78705567 -.00000105  00000+0  00000+0 0  9991
2 41552   0.0664  46.0485 0003726  11.3009 201.7009  1.00270519 36636
INTELSAT 31 (IS-31)     
1 41581U 16035A   26159.60997535 -.00000135  00000+0  00000+0 0  9999
2 41581   0.0211 259.1393 0000809 346.2683 136.1436  1.00272044 36593
BEIDOU-2 G7             
1 41586U 16037A   26159.91218399 -.00000337  00000+0  00000+0 0  9998
2 41586   1.6985  69.2507 0007250   2.6055 264.3649  1.00268906  6806
ABS-2A (MONGOLSAT-1)    
1 41588U 16038A   26159.78627566  .00000000  00000+0  00000+0 0  9992
2 41588   0.0183 321.5958 0001482  63.9214 229.4732  1.00270031 36623
EUTELSAT 117 WEST B     
1 41589U 16038B   26159.62959534  .00000004  00000+0  00000+0 0  9993
2 41589   0.0210 163.4448 0000220 214.4322 348.7805  1.00272949 36574
BRISAT                  
1 41591U 16039A   26159.72999108 -.00000180  00000+0  00000+0 0  9995
2 41591   0.0183 309.0306 0002059 127.7165 233.6714  1.00270740 36523
ECHOSTAR 18             
1 41592U 16039B   26159.75931933 -.00000266  00000+0  00000+0 0  9996
2 41592   0.0179 331.8113 0001518 107.3817  29.9509  1.00270615 36546
MUOS-5                  
1 41622U 16041A   26159.67924005 -.00000098  00000+0  00000+0 0  9999
2 41622   2.2227 301.4753 0196921 260.8682 194.0154  1.00271428 37004
TIANTONG-1 1            
1 41725U 16048A   26159.79159271 -.00000302  00000+0  00000+0 0  9996
2 41725   3.8324  43.3387 0006047  42.7405 197.4987  1.00270917 36188
JCSAT-16                
1 41729U 16050A   26159.80002622 -.00000235  00000+0  00000+0 0  9997
2 41729   0.0178 352.0022 0000934  93.0779 244.0552  1.00270303 35989
USA 270                 
1 41744U 16052A   26159.09509409  .00000095  00000+0  00000+0 0  9995
2 41744   4.1755  77.3049 0008515 337.9683  59.8197  1.00284145 28040
USA 271                 
1 41745U 16052B   26158.79771956 -.00000344  00000+0  00000+0 0  9998
2 41745   4.1460  77.3775 0010783 157.2143  71.4983  1.00262239 27822
INTELSAT 36 (IS-36)     
1 41747U 16053A   26159.86227208 -.00000008  00000+0  00000+0 0  9993
2 41747   0.0100 350.3417 0001928 345.2697 300.5515  1.00270711 35876
INSAT-3DR               
1 41752U 16054A   26159.78610234 -.00000060  00000+0  00000+0 0  9994
2 41752   0.0835  87.5770 0010429 186.7504 339.8309  1.00270569 35731
